[{"OBJECT_NAME":"STARLINK-32950","OBJECT_ID":"2025-075U","EPOCH":"2026-03-09T21:41:44.354976","MEAN_MOTION":15.27601366,"ECCENTRICITY":0.00017328,"INCLINATION":42.9998,"RA_OF_ASC_NODE":269.058,"ARG_OF_PERICENTER":259.9137,"MEAN_ANOMALY":100.152,"EPHEMERIS_TYPE":0,"CLASSIFICATION_TYPE":"U","NORAD_CAT_ID":63566,"ELEMENT_SET_NO":999,"REV_AT_EPOCH":5196,"BSTAR":0.001339917,"MEAN_MOTION_DOT":0.00036818,"MEAN_MOTION_DDOT":0},{"OBJECT_NAME":"JD 3","OBJECT_ID":"1984-012F","EPOCH":"2026-03-09T20:12:08.260128","MEAN_MOTION":13.88723209,"ECCENTRICITY":0.07313396,"INCLINATION":63.3002,"RA_OF_ASC_NODE":240.1222,"ARG_OF_PERICENTER":124.9076,"MEAN_ANOMALY":242.2952,"EPHEMERIS_TYPE":0,"CLASSIFICATION_TYPE":"U","NORAD_CAT_ID":14795,"ELEMENT_SET_NO":999,"REV_AT_EPOCH":34086,"BSTAR":0.00089007399,"MEAN_MOTION_DOT":0.00010672,"MEAN_MOTION_DDOT":0}]
